YAOGAN-43 01D           
1 60461U 24148D   26068.43560480  .00010676  00000+0  37766-3 0  9999
2 60461  35.0010  61.7102 0002556 326.2473  33.8080 15.28369377 87008
STARLINK-36542          
1 67445U 26008A   26068.39299931  .00031588  00000+0  11507-2 0  9999
2 67445  42.9989 207.1817 0001334 182.2029 177.8817 15.27630907  9525
